[{"OBJECT_NAME":"CENTISPACE-1 S14","OBJECT_ID":"2025-007J","EPOCH":"2026-03-09T22:41:11.943168","MEAN_MOTION":13.82921817,"ECCENTRICITY":0.00089806,"INCLINATION":54.9841,"RA_OF_ASC_NODE":279.64,"ARG_OF_PERICENTER":292.176,"MEAN_ANOMALY":67.8244,"EPHEMERIS_TYPE":0,"CLASSIFICATION_TYPE":"U","NORAD_CAT_ID":62583,"ELEMENT_SET_NO":999,"REV_AT_EPOCH":6100,"BSTAR":0.00010890491,"MEAN_MOTION_DOT":-2.2e-7,"MEAN_MOTION_DDOT":0},{"OBJECT_NAME":"THOR ABLESTAR DEB","OBJECT_ID":"1961-015KU","EPOCH":"2026-03-09T02:48:14.798880","MEAN_MOTION":13.67784665,"ECCENTRICITY":0.01268137,"INCLINATION":65.8401,"RA_OF_ASC_NODE":105.8915,"ARG_OF_PERICENTER":226.113,"MEAN_ANOMALY":164.4893,"EPHEMERIS_TYPE":0,"CLASSIFICATION_TYPE":"U","NORAD_CAT_ID":13511,"ELEMENT_SET_NO":999,"REV_AT_EPOCH":27741,"BSTAR":0.00034707552,"MEAN_MOTION_DOT":2.32e-6,"MEAN_MOTION_DDOT":0}]
